{
  "type": "FeatureCollection",
  "features": [
    {
      "type": "Feature",
      "properties": {
        "norad_id": 59600,
        "name": "GSAT0227 (GALILEO 30)",
        "group": "galileo",
        "lat": 37.986532090442616,
        "lon": 139.4807056238715,
        "alt_km": 23213.47705356087,
        "timestamp": "2025-12-10T18:57:00.328508+00:00",
        "meta_object_name": "GSAT0227 (GALILEO 30)",
        "meta_object_id": "2024-079C",
        "meta_epoch": "2025-12-08T22:48:42.234912",
        "meta_mean_motion": 1.70474719,
        "meta_eccentricity": 0.0003262,
        "meta_inclination": 54.9946,
        "meta_ra_of_asc_node": 106.4003,
        "meta_arg_of_pericenter": 114.182,
        "meta_mean_anomaly": 245.816,
        "meta_ephemeris_type": 0,
        "meta_classification_type": "U",
        "meta_norad_cat_id": 59600,
        "meta_element_set_no": 999,
        "meta_rev_at_epoch": 1012,
        "meta_bstar": 0,
        "meta_mean_motion_dot": 9e-08,
        "meta_mean_motion_ddot": 0,
        "tle_line1": "1 59600U 24079C   25342.95048883  .00000009  00000+0  00000+0 0  9990",
        "tle_line2": "2 59600  54.9946 106.4003 0003262 114.1820 245.8160  1.70474719 10123"
      },
      "geometry": {
        "type": "Point",
        "coordinates": [
          139.4807056238715,
          37.986532090442616
        ]
      }
    },
    {
      "type": "Feature",
      "properties": {
        "norad_id": 61182,
        "name": "GSAT0232 (GALILEO 32)",
        "group": "galileo",
        "lat": -47.17545536484841,
        "lon": 94.96043757168621,
        "alt_km": 23222.419868967885,
        "timestamp": "2025-12-10T18:57:00.328520+00:00",
        "meta_object_name": "GSAT0232 (GALILEO 32)",
        "meta_object_id": "2024-167A",
        "meta_epoch": "2025-12-08T22:32:43.317600",
        "meta_mean_motion": 1.70473335,
        "meta_eccentricity": 0.0002034,
        "meta_inclination": 55.2421,
        "meta_ra_of_asc_node": 226.5351,
        "meta_arg_of_pericenter": 212.6306,
        "meta_mean_anomaly": 335.1093,
        "meta_ephemeris_type": 0,
        "meta_classification_type": "U",
        "meta_norad_cat_id": 61182,
        "meta_element_set_no": 999,
        "meta_rev_at_epoch": 763,
        "meta_bstar": 0,
        "meta_mean_motion_dot": 1.4e-07,
        "meta_mean_motion_ddot": 0,
        "tle_line1": "1 61182U 24167A   25342.93939025  .00000014  00000+0  00000+0 0  9997",
        "tle_line2": "2 61182  55.2421 226.5351 0002034 212.6306 335.1093  1.70473335  7635"
      },
      "geometry": {
        "type": "Point",
        "coordinates": [
          94.96043757168621,
          -47.17545536484841
        ]
      }
    },
    {
      "type": "Feature",
      "properties": {
        "norad_id": 61183,
        "name": "GSAT0226 (GALILEO 31)",
        "group": "galileo",
        "lat": -3.437924963722917,
        "lon": -135.8909302497224,
        "alt_km": 23224.261124302084,
        "timestamp": "2025-12-10T18:57:00.328531+00:00",
        "meta_object_name": "GSAT0226 (GALILEO 31)",
        "meta_object_id": "2024-167B",
        "meta_epoch": "2025-12-09T06:58:53.079168",
        "meta_mean_motion": 1.70473461,
        "meta_eccentricity": 8.01e-05,
        "meta_inclination": 55.2404,
        "meta_ra_of_asc_node": 226.5307,
        "meta_arg_of_pericenter": 119.131,
        "meta_mean_anomaly": 36.9899,
        "meta_ephemeris_type": 0,
        "meta_classification_type": "U",
        "meta_norad_cat_id": 61183,
        "meta_element_set_no": 999,
        "meta_rev_at_epoch": 761,
        "meta_bstar": 0,
        "meta_mean_motion_dot": 1.2e-07,
        "meta_mean_motion_ddot": 0,
        "tle_line1": "1 61183U 24167B   25343.29089212  .00000012  00000+0  00000+0 0  9990",
        "tle_line2": "2 61183  55.2404 226.5307 0000801 119.1310  36.9899  1.70473461  7612"
      },
      "geometry": {
        "type": "Point",
        "coordinates": [
          -135.8909302497224,
          -3.437924963722917
        ]
      }
    }
  ]
}